CCSDS_OMM_VERS = 2.0
CREATION_DATE  = 
ORIGINATOR     = 

OBJECT_NAME    = ENVISAT
OBJECT_ID      = 2002-009A
CENTER_NAME    = EARTH
REF_FRAME      = TEME
TIME_SYSTEM    = UTC
MEAN_ELEMENT_THEORY = SGP/SGP4

EPOCH          = 2025-11-23T20:26:55.360032
MEAN_MOTION    = 14.38988828
ECCENTRICITY   = .0001257
INCLINATION    = 98.3571
RA_OF_ASC_NODE = 279.0743
ARG_OF_PERICENTER = 81.1224
MEAN_ANOMALY   = 332.9980

EPHEMERIS_TYPE = 0
CLASSIFICATION_TYPE = U
NORAD_CAT_ID   = 27386
ELEMENT_SET_NO = 999
REV_AT_EPOCH   = 24395
BSTAR          = .57656E-4
MEAN_MOTION_DOT = .135E-5
MEAN_MOTION_DDOT = 0

CCSDS_OMM_VERS = 2.0
CREATION_DATE  = 
ORIGINATOR     = 

OBJECT_NAME    = IDEFIX & ARIANE 42P R/B
OBJECT_ID      = 2002-021B
CENTER_NAME    = EARTH
REF_FRAME      = TEME
TIME_SYSTEM    = UTC
MEAN_ELEMENT_THEORY = SGP/SGP4

EPOCH          = 2025-11-23T20:14:44.786688
MEAN_MOTION    = 14.30929897
ECCENTRICITY   = .0012505
INCLINATION    = 98.5760
RA_OF_ASC_NODE = 262.7825
ARG_OF_PERICENTER = 134.7832
MEAN_ANOMALY   = 225.4371

EPHEMERIS_TYPE = 0
CLASSIFICATION_TYPE = U
NORAD_CAT_ID   = 27422
ELEMENT_SET_NO = 999
REV_AT_EPOCH   = 22888
BSTAR          = .14707E-3
MEAN_MOTION_DOT = .343E-5
MEAN_MOTION_DDOT = 0

CCSDS_OMM_VERS = 2.0
CREATION_DATE  = 
ORIGINATOR     = 

OBJECT_NAME    = AQUA
OBJECT_ID      = 2002-022A
CENTER_NAME    = EARTH
REF_FRAME      = TEME
TIME_SYSTEM    = UTC
MEAN_ELEMENT_THEORY = SGP/SGP4

EPOCH          = 2025-11-24T03:29:09.699360
MEAN_MOTION    = 14.61743634
ECCENTRICITY   = .0000585
INCLINATION    = 98.4011
RA_OF_ASC_NODE = 288.7257
ARG_OF_PERICENTER = 84.0380
MEAN_ANOMALY   = 8.0272

EPHEMERIS_TYPE = 0
CLASSIFICATION_TYPE = U
NORAD_CAT_ID   = 27424
ELEMENT_SET_NO = 999
REV_AT_EPOCH   = 25331
BSTAR          = .25639E-3
MEAN_MOTION_DOT = .1229E-4
MEAN_MOTION_DDOT = 0

CCSDS_OMM_VERS = 2.0
CREATION_DATE  = 
ORIGINATOR     = 

OBJECT_NAME    = CZ-4B R/B
OBJECT_ID      = 2002-024C
CENTER_NAME    = EARTH
REF_FRAME      = TEME
TIME_SYSTEM    = UTC
MEAN_ELEMENT_THEORY = SGP/SGP4

EPOCH          = 2025-11-24T01:01:13.124064
MEAN_MOTION    = 14.14522319
ECCENTRICITY   = .0049484
INCLINATION    = 98.9025
RA_OF_ASC_NODE = 16.8770
ARG_OF_PERICENTER = 323.9966
MEAN_ANOMALY   = 97.7580

EPHEMERIS_TYPE = 0
CLASSIFICATION_TYPE = U
NORAD_CAT_ID   = 27432
ELEMENT_SET_NO = 999
REV_AT_EPOCH   = 21430
BSTAR          = .64009E-4
MEAN_MOTION_DOT = .79E-6
MEAN_MOTION_DDOT = 0

CCSDS_OMM_VERS = 2.0
CREATION_DATE  = 
ORIGINATOR     = 

OBJECT_NAME    = MIDORI II (ADEOS-II)
OBJECT_ID      = 2002-056A
CENTER_NAME    = EARTH
REF_FRAME      = TEME
TIME_SYSTEM    = UTC
MEAN_ELEMENT_THEORY = SGP/SGP4

EPOCH          = 2025-11-23T21:11:27.102912
MEAN_MOTION    = 14.29186984
ECCENTRICITY   = .0000864
INCLINATION    = 98.7609
RA_OF_ASC_NODE = 280.7432
ARG_OF_PERICENTER = 23.5119
MEAN_ANOMALY   = 336.6102

EPHEMERIS_TYPE = 0
CLASSIFICATION_TYPE = U
NORAD_CAT_ID   = 27597
ELEMENT_SET_NO = 999
REV_AT_EPOCH   = 19518
BSTAR          = .15219E-3
MEAN_MOTION_DOT = .341E-5
MEAN_MOTION_DDOT = 0

CCSDS_OMM_VERS = 2.0
CREATION_DATE  = 
ORIGINATOR     = 

OBJECT_NAME    = H-2A R/B
OBJECT_ID      = 2002-056E
CENTER_NAME    = EARTH
REF_FRAME      = TEME
TIME_SYSTEM    = UTC
MEAN_ELEMENT_THEORY = SGP/SGP4

EPOCH          = 2025-11-23T21:46:27.643296
MEAN_MOTION    = 14.33655054
ECCENTRICITY   = .0071392
INCLINATION    = 98.3039
RA_OF_ASC_NODE = 287.4171
ARG_OF_PERICENTER = 116.3113
MEAN_ANOMALY   = 307.6297

EPHEMERIS_TYPE = 0
CLASSIFICATION_TYPE = U
NORAD_CAT_ID   = 27601
ELEMENT_SET_NO = 999
REV_AT_EPOCH   = 19895
BSTAR          = .12743E-3
MEAN_MOTION_DOT = .323E-5
MEAN_MOTION_DDOT = 0

CCSDS_OMM_VERS = 2.0
CREATION_DATE  = 
ORIGINATOR     = 

OBJECT_NAME    = CZ-4B R/B
OBJECT_ID      = 2003-049C
CENTER_NAME    = EARTH
REF_FRAME      = TEME
TIME_SYSTEM    = UTC
MEAN_ELEMENT_THEORY = SGP/SGP4

EPOCH          = 2025-11-23T22:59:23.456832
MEAN_MOTION    = 14.54884310
ECCENTRICITY   = .0047924
INCLINATION    = 98.6776
RA_OF_ASC_NODE = 313.8139
ARG_OF_PERICENTER = 193.0611
MEAN_ANOMALY   = 166.9348

EPHEMERIS_TYPE = 0
CLASSIFICATION_TYPE = U
NORAD_CAT_ID   = 28059
ELEMENT_SET_NO = 999
REV_AT_EPOCH   = 17122
BSTAR          = .11426E-3
MEAN_MOTION_DOT = .447E-5
MEAN_MOTION_DDOT = 0

CCSDS_OMM_VERS = 2.0
CREATION_DATE  = 
ORIGINATOR     = 

OBJECT_NAME    = CZ-2C R/B
OBJECT_ID      = 2004-012C
CENTER_NAME    = EARTH
REF_FRAME      = TEME
TIME_SYSTEM    = UTC
MEAN_ELEMENT_THEORY = SGP/SGP4

EPOCH          = 2025-11-24T03:18:05.861376
MEAN_MOTION    = 15.53808036
ECCENTRICITY   = .0017799
INCLINATION    = 97.7445
RA_OF_ASC_NODE = 19.2453
ARG_OF_PERICENTER = 342.3360
MEAN_ANOMALY   = 17.7271

EPHEMERIS_TYPE = 0
CLASSIFICATION_TYPE = U
NORAD_CAT_ID   = 28222
ELEMENT_SET_NO = 999
REV_AT_EPOCH   = 18783
BSTAR          = .5919E-3
MEAN_MOTION_DOT = .38275E-3
MEAN_MOTION_DDOT = 0

CCSDS_OMM_VERS = 2.0
CREATION_DATE  = 
ORIGINATOR     = 

OBJECT_NAME    = SL-16 R/B
OBJECT_ID      = 2004-021B
CENTER_NAME    = EARTH
REF_FRAME      = TEME
TIME_SYSTEM    = UTC
MEAN_ELEMENT_THEORY = SGP/SGP4

EPOCH          = 2025-11-23T19:28:56.484768
MEAN_MOTION    = 14.14580824
ECCENTRICITY   = .0006164
INCLINATION    = 71.0009
RA_OF_ASC_NODE = 94.6839
ARG_OF_PERICENTER = 220.6966
MEAN_ANOMALY   = 139.3696

EPHEMERIS_TYPE = 0
CLASSIFICATION_TYPE = U
NORAD_CAT_ID   = 28353
ELEMENT_SET_NO = 999
REV_AT_EPOCH   = 10786
BSTAR          = .12424E-3
MEAN_MOTION_DOT = .191E-5
MEAN_MOTION_DDOT = 0

CCSDS_OMM_VERS = 2.0
CREATION_DATE  = 
ORIGINATOR     = 

OBJECT_NAME    = CZ-4B R/B
OBJECT_ID      = 2004-035C
CENTER_NAME    = EARTH
REF_FRAME      = TEME
TIME_SYSTEM    = UTC
MEAN_ELEMENT_THEORY = SGP/SGP4

EPOCH          = 2025-11-24T02:00:33.668928
MEAN_MOTION    = 15.26948833
ECCENTRICITY   = .0033107
INCLINATION    = 97.3628
RA_OF_ASC_NODE = 358.6804
ARG_OF_PERICENTER = 346.0544
MEAN_ANOMALY   = 13.9778

EPHEMERIS_TYPE = 0
CLASSIFICATION_TYPE = U
NORAD_CAT_ID   = 28415
ELEMENT_SET_NO = 999
REV_AT_EPOCH   = 16378
BSTAR          = .35477E-3
MEAN_MOTION_DOT = .9465E-4
MEAN_MOTION_DDOT = 0

CCSDS_OMM_VERS = 2.0
CREATION_DATE  = 
ORIGINATOR     = 

OBJECT_NAME    = CZ-2C R/B
OBJECT_ID      = 2004-046B
CENTER_NAME    = EARTH
REF_FRAME      = TEME
TIME_SYSTEM    = UTC
MEAN_ELEMENT_THEORY = SGP/SGP4

EPOCH          = 2025-11-23T17:54:09.984096
MEAN_MOTION    = 14.26928190
ECCENTRICITY   = .0140699
INCLINATION    = 98.1972
RA_OF_ASC_NODE = 244.3063
ARG_OF_PERICENTER = 108.0063
MEAN_ANOMALY   = 253.6510

EPHEMERIS_TYPE = 0
CLASSIFICATION_TYPE = U
NORAD_CAT_ID   = 28480
ELEMENT_SET_NO = 999
REV_AT_EPOCH   = 9339
BSTAR          = .89471E-4
MEAN_MOTION_DOT = .202E-5
MEAN_MOTION_DDOT = 0

CCSDS_OMM_VERS = 2.0
CREATION_DATE  = 
ORIGINATOR     = 

OBJECT_NAME    = ARIANE 5 R/B
OBJECT_ID      = 2004-049H
CENTER_NAME    = EARTH
REF_FRAME      = TEME
TIME_SYSTEM    = UTC
MEAN_ELEMENT_THEORY = SGP/SGP4

EPOCH          = 2025-11-24T01:19:35.728896
MEAN_MOTION    = 14.84952309
ECCENTRICITY   = .0084093
INCLINATION    = 98.2520
RA_OF_ASC_NODE = 127.6685
ARG_OF_PERICENTER = 334.2158
MEAN_ANOMALY   = 25.4874

EPHEMERIS_TYPE = 0
CLASSIFICATION_TYPE = U
NORAD_CAT_ID   = 28499
ELEMENT_SET_NO = 999
REV_AT_EPOCH   = 13011
BSTAR          = .11594E-3
MEAN_MOTION_DOT = .986E-5
MEAN_MOTION_DDOT = 0

