ENVISAT                 
1 27386U 02009A   25327.85202963  .00000135  00000+0  57656-4 0  9992
2 27386  98.3571 279.0743 0001257  81.1224 332.9980 14.38988828243952
IDEFIX & ARIANE 42P R/B 
1 27422U 02021B   25327.84357392  .00000343  00000+0  14707-3 0  9993
2 27422  98.5760 262.7825 0012505 134.7832 225.4371 14.30929897228881
AQUA                    
1 27424U 02022A   25328.14525115  .00001229  00000+0  25639-3 0  9990
2 27424  98.4011 288.7257 0000585  84.0380   8.0272 14.61743634253316
CZ-4B R/B               
1 27432U 02024C   25328.04251301  .00000079  00000+0  64009-4 0  9990
2 27432  98.9025  16.8770 0049484 323.9966  97.7580 14.14522319214307
MIDORI II (ADEOS-II)    
1 27597U 02056A   25327.88295258  .00000341  00000+0  15219-3 0  9997
2 27597  98.7609 280.7432 0000864  23.5119 336.6102 14.29186984195183
H-2A R/B                
1 27601U 02056E   25327.90726439  .00000323  00000+0  12743-3 0  9995
2 27601  98.3039 287.4171 0071392 116.3113 307.6297 14.33655054198950
CZ-4B R/B               
1 28059U 03049C   25327.95791038  .00000447  00000+0  11426-3 0  9992
2 28059  98.6776 313.8139 0047924 193.0611 166.9348 14.54884310171222
CZ-2C R/B               
1 28222U 04012C   25328.13756784  .00038275  00000+0  59190-3 0  9995
2 28222  97.7445  19.2453 0017799 342.3360  17.7271 15.53808036187833
SL-16 R/B               
1 28353U 04021B   25327.81176487  .00000191  00000+0  12424-3 0  9995
2 28353  71.0009  94.6839 0006164 220.6966 139.3696 14.14580824107863
CZ-4B R/B               
1 28415U 04035C   25328.08372302  .00009465  00000+0  35477-3 0  9999
2 28415  97.3628 358.6804 0033107 346.0544  13.9778 15.26948833163780
CZ-2C R/B               
1 28480U 04046B   25327.74594889  .00000202  00000+0  89471-4 0  9995
2 28480  98.1972 244.3063 0140699 108.0063 253.6510 14.26928190 93397
ARIANE 5 R/B            
1 28499U 04049H   25328.05527464  .00000986  00000+0  11594-3 0  9997
2 28499  98.2520 127.6685 0084093 334.2158  25.4874 14.84952309130116
